{
  "type": "FeatureCollection",
  "features": [
    {
      "type": "Feature",
      "properties": {
        "norad_id": 31307,
        "name": "GALAXY 17 (G-17)",
        "group": "intelsat",
        "lat": 0.056920112068871195,
        "lon": -99.64964525870688,
        "alt_km": 35764.18428236231,
        "timestamp": "2025-12-22T16:55:17.117900+00:00",
        "meta_object_name": "GALAXY 17 (G-17)",
        "meta_object_id": "2007-016B",
        "meta_epoch": "2025-12-22T06:09:12.365568",
        "meta_mean_motion": 1.00269931,
        "meta_eccentricity": 0.00053416,
        "meta_inclination": 2.5223,
        "meta_ra_of_asc_node": 82.1781,
        "meta_arg_of_pericenter": 171.0678,
        "meta_mean_anomaly": 205.1399,
        "meta_ephemeris_type": 0,
        "meta_classification_type": "U",
        "meta_norad_cat_id": 31307,
        "meta_element_set_no": 999,
        "meta_rev_at_epoch": 6803,
        "meta_bstar": 0,
        "meta_mean_motion_dot": -1.86e-06,
        "meta_mean_motion_ddot": 0,
        "tle_line1": "1 31307U 07016B   25356.25639312 -.00000186  00000+0  00000+0 0  9994",
        "tle_line2": "2 31307   2.5223  82.1781 0005341 171.0678 205.1399  1.00269931 68037"
      },
      "geometry": {
        "type": "Point",
        "coordinates": [
          -99.64964525870688,
          0.056920112068871195
        ]
      }
    },
    {
      "type": "Feature",
      "properties": {
        "norad_id": 31862,
        "name": "DIRECTV 10",
        "group": "intelsat",
        "lat": -0.005126096332887392,
        "lon": -117.47523899083912,
        "alt_km": 35785.22907765214,
        "timestamp": "2025-12-22T16:55:17.117911+00:00",
        "meta_object_name": "DIRECTV 10",
        "meta_object_id": "2007-032A",
        "meta_epoch": "2025-12-21T16:08:00.885408",
        "meta_mean_motion": 1.00272363,
        "meta_eccentricity": 2.033e-05,
        "meta_inclination": 0.0084,
        "meta_ra_of_asc_node": 101.8858,
        "meta_arg_of_pericenter": 105.8192,
        "meta_mean_anomaly": 21.9876,
        "meta_ephemeris_type": 0,
        "meta_classification_type": "U",
        "meta_norad_cat_id": 31862,
        "meta_element_set_no": 999,
        "meta_rev_at_epoch": 4381,
        "meta_bstar": 0,
        "meta_mean_motion_dot": -8.1e-07,
        "meta_mean_motion_ddot": 0,
        "tle_line1": "1 31862U 07032A   25355.67223247 -.00000081  00000+0  00000+0 0  9993",
        "tle_line2": "2 31862   0.0084 101.8858 0000203 105.8192  21.9876  1.00272363 43819"
      },
      "geometry": {
        "type": "Point",
        "coordinates": [
          -117.47523899083912,
          -0.005126096332887392
        ]
      }
    },
    {
      "type": "Feature",
      "properties": {
        "norad_id": 32253,
        "name": "INTELSAT 11 (IS-11)",
        "group": "intelsat",
        "lat": 3.108877332999967,
        "lon": 167.09708472415102,
        "alt_km": 36126.835040215105,
        "timestamp": "2025-12-22T16:55:17.117923+00:00",
        "meta_object_name": "INTELSAT 11 (IS-11)",
        "meta_object_id": "2007-044B",
        "meta_epoch": "2025-12-22T05:28:52.272192",
        "meta_mean_motion": 0.99052799,
        "meta_eccentricity": 0.00085394,
        "meta_inclination": 3.1033,
        "meta_ra_of_asc_node": 80.8719,
        "meta_arg_of_pericenter": 169.7035,
        "meta_mean_anomaly": 106.6462,
        "meta_ephemeris_type": 0,
        "meta_classification_type": "U",
        "meta_norad_cat_id": 32253,
        "meta_element_set_no": 999,
        "meta_rev_at_epoch": 6669,
        "meta_bstar": 0,
        "meta_mean_motion_dot": -1.12e-06,
        "meta_mean_motion_ddot": 0,
        "tle_line1": "1 32253U 07044B   25356.22838278 -.00000112  00000+0  00000+0 0  9994",
        "tle_line2": "2 32253   3.1033  80.8719 0008539 169.7035 106.6462  0.99052799 66698"
      },
      "geometry": {
        "type": "Point",
        "coordinates": [
          167.09708472415102,
          3.108877332999967
        ]
      }
    },
    {
      "type": "Feature",
      "properties": {
        "norad_id": 32388,
        "name": "HORIZONS-2",
        "group": "intelsat",
        "lat": -0.34853433982571647,
        "lon": -88.47512200482647,
        "alt_km": 35766.88940950686,
        "timestamp": "2025-12-22T16:55:17.117935+00:00",
        "meta_object_name": "HORIZONS-2",
        "meta_object_id": "2007-063B",
        "meta_epoch": "2025-12-22T05:22:58.510848",
        "meta_mean_motion": 1.00270969,
        "meta_eccentricity": 0.00046331,
        "meta_inclination": 2.1448,
        "meta_ra_of_asc_node": 82.859,
        "meta_arg_of_pericenter": 194.9709,
        "meta_mean_anomaly": 180.161,
        "meta_ephemeris_type": 0,
        "meta_classification_type": "U",
        "meta_norad_cat_id": 32388,
        "meta_element_set_no": 999,
        "meta_rev_at_epoch": 6604,
        "meta_bstar": 0,
        "meta_mean_motion_dot": -2.33e-06,
        "meta_mean_motion_ddot": 0,
        "tle_line1": "1 32388U 07063B   25356.22428832 -.00000233  00000+0  00000+0 0  9999",
        "tle_line2": "2 32388   2.1448  82.8590 0004633 194.9709 180.1610  1.00270969 66049"
      },
      "geometry": {
        "type": "Point",
        "coordinates": [
          -88.47512200482647,
          -0.34853433982571647
        ]
      }
    },
    {
      "type": "Feature",
      "properties": {
        "norad_id": 32729,
        "name": "DIRECTV 11",
        "group": "intelsat",
        "lat": -0.019768861281871525,
        "lon": -113.87905200171618,
        "alt_km": 35786.42390885425,
        "timestamp": "2025-12-22T16:55:17.117947+00:00",
        "meta_object_name": "DIRECTV 11",
        "meta_object_id": "2008-013A",
        "meta_epoch": "2025-12-21T16:09:00.789984",
        "meta_mean_motion": 1.00267418,
        "meta_eccentricity": 8.567e-05,
        "meta_inclination": 0.0458,
        "meta_ra_of_asc_node": 200.3144,
        "meta_arg_of_pericenter": 330.5483,
        "meta_mean_anomaly": 62.6867,
        "meta_ephemeris_type": 0,
        "meta_classification_type": "U",
        "meta_norad_cat_id": 32729,
        "meta_element_set_no": 999,
        "meta_rev_at_epoch": 4381,
        "meta_bstar": 0,
        "meta_mean_motion_dot": -1.03e-06,
        "meta_mean_motion_ddot": 0,
        "tle_line1": "1 32729U 08013A   25355.67292581 -.00000103  00000+0  00000+0 0  9998",
        "tle_line2": "2 32729   0.0458 200.3144 0000856 330.5483  62.6867  1.00267418 43811"
      },
      "geometry": {
        "type": "Point",
        "coordinates": [
          -113.87905200171618,
          -0.019768861281871525
        ]
      }
    },
    {
      "type": "Feature",
      "properties": {
        "norad_id": 32951,
        "name": "GALAXY 18 (G-18)",
        "group": "intelsat",
        "lat": -0.02389180001153265,
        "lon": -137.71618810022548,
        "alt_km": 35778.72412172474,
        "timestamp": "2025-12-22T16:55:17.117959+00:00",
        "meta_object_name": "GALAXY 18 (G-18)",
        "meta_object_id": "2008-024A",
        "meta_epoch": "2025-12-22T05:43:58.324800",
        "meta_mean_motion": 1.00271833,
        "meta_eccentricity": 0.00028785,
        "meta_inclination": 0.0194,
        "meta_ra_of_asc_node": 291.0763,
        "meta_arg_of_pericenter": 344.3497,
        "meta_mean_anomaly": 138.6035,
        "meta_ephemeris_type": 0,
        "meta_classification_type": "U",
        "meta_norad_cat_id": 32951,
        "meta_element_set_no": 999,
        "meta_rev_at_epoch": 4407,
        "meta_bstar": 0,
        "meta_mean_motion_dot": 4.7e-07,
        "meta_mean_motion_ddot": 0,
        "tle_line1": "1 32951U 08024A   25356.23886950  .00000047  00000+0  00000+0 0  9995",
        "tle_line2": "2 32951   0.0194 291.0763 0002878 344.3497 138.6035  1.00271833 44079"
      },
      "geometry": {
        "type": "Point",
        "coordinates": [
          -137.71618810022548,
          -0.02389180001153265
        ]
      }
    },
    {
      "type": "Feature",
      "properties": {
        "norad_id": 33153,
        "name": "INTELSAT 25 (IS-25)",
        "group": "intelsat",
        "lat": -1.7787643853013506,
        "lon": -46.16154972562543,
        "alt_km": 35771.64280698551,
        "timestamp": "2025-12-22T16:55:17.117971+00:00",
        "meta_object_name": "INTELSAT 25 (IS-25)",
        "meta_object_id": "2008-034A",
        "meta_epoch": "2025-12-22T06:10:03.327744",
        "meta_mean_motion": 1.00273109,
        "meta_eccentricity": 0.00047993,
        "meta_inclination": 2.2507,
        "meta_ra_of_asc_node": 82.5472,
        "meta_arg_of_pericenter": 186.074,
        "meta_mean_anomaly": 243.4523,
        "meta_ephemeris_type": 0,
        "meta_classification_type": "U",
        "meta_norad_cat_id": 33153,
        "meta_element_set_no": 999,
        "meta_rev_at_epoch": 6392,
        "meta_bstar": 0,
        "meta_mean_motion_dot": -2.03e-06,
        "meta_mean_motion_ddot": 0,
        "tle_line1": "1 33153U 08034A   25356.25698296 -.00000203  00000+0  00000+0 0  9992",
        "tle_line2": "2 33153   2.2507  82.5472 0004799 186.0740 243.4523  1.00273109 63922"
      },
      "geometry": {
        "type": "Point",
        "coordinates": [
          -46.16154972562543,
          -1.7787643853013506
        ]
      }
    }
  ]
}